CCSDS_OMM_VERS = 2.0
CREATION_DATE  = 
ORIGINATOR     = 

OBJECT_NAME    = CSG-3
OBJECT_ID      = 2026-001A
CENTER_NAME    = EARTH
REF_FRAME      = TEME
TIME_SYSTEM    = UTC
MEAN_ELEMENT_THEORY = SGP/SGP4

EPOCH          = 2026-01-14T22:53:30.284736
MEAN_MOTION    = 14.82318418
ECCENTRICITY   = .00015424
INCLINATION    = 97.8589
RA_OF_ASC_NODE = 200.8454
ARG_OF_PERICENTER = 91.6087
MEAN_ANOMALY   = 268.5303

EPHEMERIS_TYPE = 0
CLASSIFICATION_TYPE = U
NORAD_CAT_ID   = 67304
ELEMENT_SET_NO = 999
REV_AT_EPOCH   = 176
BSTAR          = .25491881E-4
MEAN_MOTION_DOT = .152E-5
MEAN_MOTION_DDOT = 0

CCSDS_OMM_VERS = 2.0
CREATION_DATE  = 
ORIGINATOR     = 

OBJECT_NAME    = STARLINK-36490
OBJECT_ID      = 2026-002A
CENTER_NAME    = EARTH
REF_FRAME      = TEME
TIME_SYSTEM    = UTC
MEAN_ELEMENT_THEORY = SGP/SGP4

EPOCH          = 2026-01-14T22:00:00.999936
MEAN_MOTION    = 15.88998128
ECCENTRICITY   = .00016934
INCLINATION    = 42.9974
RA_OF_ASC_NODE = 276.3716
ARG_OF_PERICENTER = 264.5829
MEAN_ANOMALY   = 337.2574

EPHEMERIS_TYPE = 0
CLASSIFICATION_TYPE = U
NORAD_CAT_ID   = 67305
ELEMENT_SET_NO = 999
REV_AT_EPOCH   = 283
BSTAR          = -.46397337E-2
MEAN_MOTION_DOT = -.1221562E-1
MEAN_MOTION_DDOT = 0

CCSDS_OMM_VERS = 2.0
CREATION_DATE  = 
ORIGINATOR     = 

OBJECT_NAME    = STARLINK-36488
OBJECT_ID      = 2026-002B
CENTER_NAME    = EARTH
REF_FRAME      = TEME
TIME_SYSTEM    = UTC
MEAN_ELEMENT_THEORY = SGP/SGP4

EPOCH          = 2026-01-14T22:00:00.999936
MEAN_MOTION    = 15.89033063
ECCENTRICITY   = .00016573
INCLINATION    = 42.9975
RA_OF_ASC_NODE = 276.3666
ARG_OF_PERICENTER = 269.2262
MEAN_ANOMALY   = 334.5936

EPHEMERIS_TYPE = 0
CLASSIFICATION_TYPE = U
NORAD_CAT_ID   = 67306
ELEMENT_SET_NO = 999
REV_AT_EPOCH   = 277
BSTAR          = -.46562832E-2
MEAN_MOTION_DOT = -.1227363E-1
MEAN_MOTION_DDOT = 0

CCSDS_OMM_VERS = 2.0
CREATION_DATE  = 
ORIGINATOR     = 

OBJECT_NAME    = STARLINK-36481
OBJECT_ID      = 2026-002C
CENTER_NAME    = EARTH
REF_FRAME      = TEME
TIME_SYSTEM    = UTC
MEAN_ELEMENT_THEORY = SGP/SGP4

EPOCH          = 2026-01-14T22:00:00.999936
MEAN_MOTION    = 15.89097279
ECCENTRICITY   = .00016924
INCLINATION    = 42.9976
RA_OF_ASC_NODE = 276.3544
ARG_OF_PERICENTER = 270.6906
MEAN_ANOMALY   = 338.0633

EPHEMERIS_TYPE = 0
CLASSIFICATION_TYPE = U
NORAD_CAT_ID   = 67307
ELEMENT_SET_NO = 999
REV_AT_EPOCH   = 277
BSTAR          = -.47559287E-2
MEAN_MOTION_DOT = -.1254351E-1
MEAN_MOTION_DDOT = 0

CCSDS_OMM_VERS = 2.0
CREATION_DATE  = 
ORIGINATOR     = 

OBJECT_NAME    = STARLINK-36449
OBJECT_ID      = 2026-002D
CENTER_NAME    = EARTH
REF_FRAME      = TEME
TIME_SYSTEM    = UTC
MEAN_ELEMENT_THEORY = SGP/SGP4

EPOCH          = 2026-01-14T22:00:00.999936
MEAN_MOTION    = 15.89134910
ECCENTRICITY   = .0001648
INCLINATION    = 42.9975
RA_OF_ASC_NODE = 276.3484
ARG_OF_PERICENTER = 271.0354
MEAN_ANOMALY   = 340.0443

EPHEMERIS_TYPE = 0
CLASSIFICATION_TYPE = U
NORAD_CAT_ID   = 67308
ELEMENT_SET_NO = 999
REV_AT_EPOCH   = 283
BSTAR          = -.4828118E-2
MEAN_MOTION_DOT = -.127335E-1
MEAN_MOTION_DDOT = 0

CCSDS_OMM_VERS = 2.0
CREATION_DATE  = 
ORIGINATOR     = 

OBJECT_NAME    = STARLINK-36482
OBJECT_ID      = 2026-002E
CENTER_NAME    = EARTH
REF_FRAME      = TEME
TIME_SYSTEM    = UTC
MEAN_ELEMENT_THEORY = SGP/SGP4

EPOCH          = 2026-01-14T22:00:00.999936
MEAN_MOTION    = 15.89291457
ECCENTRICITY   = .00016702
INCLINATION    = 42.9979
RA_OF_ASC_NODE = 276.3183
ARG_OF_PERICENTER = 271.0993
MEAN_ANOMALY   = 352.1744

EPHEMERIS_TYPE = 0
CLASSIFICATION_TYPE = U
NORAD_CAT_ID   = 67309
ELEMENT_SET_NO = 999
REV_AT_EPOCH   = 277
BSTAR          = -.53226449E-2
MEAN_MOTION_DOT = -.1397116E-1
MEAN_MOTION_DDOT = 0

CCSDS_OMM_VERS = 2.0
CREATION_DATE  = 
ORIGINATOR     = 

OBJECT_NAME    = STARLINK-36491
OBJECT_ID      = 2026-002F
CENTER_NAME    = EARTH
REF_FRAME      = TEME
TIME_SYSTEM    = UTC
MEAN_ELEMENT_THEORY = SGP/SGP4

EPOCH          = 2026-01-14T22:00:00.999936
MEAN_MOTION    = 15.89062157
ECCENTRICITY   = .00016613
INCLINATION    = 42.9978
RA_OF_ASC_NODE = 276.3593
ARG_OF_PERICENTER = 269.7493
MEAN_ANOMALY   = 337.0931

EPHEMERIS_TYPE = 0
CLASSIFICATION_TYPE = U
NORAD_CAT_ID   = 67310
ELEMENT_SET_NO = 999
REV_AT_EPOCH   = 277
BSTAR          = -.47226082E-2
MEAN_MOTION_DOT = -.1244541E-1
MEAN_MOTION_DDOT = 0

CCSDS_OMM_VERS = 2.0
CREATION_DATE  = 
ORIGINATOR     = 

OBJECT_NAME    = STARLINK-36495
OBJECT_ID      = 2026-002G
CENTER_NAME    = EARTH
REF_FRAME      = TEME
TIME_SYSTEM    = UTC
MEAN_ELEMENT_THEORY = SGP/SGP4

EPOCH          = 2026-01-14T22:00:00.999936
MEAN_MOTION    = 15.89175340
ECCENTRICITY   = .00017158
INCLINATION    = 42.9977
RA_OF_ASC_NODE = 276.3417
ARG_OF_PERICENTER = 270.5551
MEAN_ANOMALY   = 343.1819

EPHEMERIS_TYPE = 0
CLASSIFICATION_TYPE = U
NORAD_CAT_ID   = 67311
ELEMENT_SET_NO = 999
REV_AT_EPOCH   = 293
BSTAR          = -.49851891E-2
MEAN_MOTION_DOT = -.1312321E-1
MEAN_MOTION_DDOT = 0

CCSDS_OMM_VERS = 2.0
CREATION_DATE  = 
ORIGINATOR     = 

OBJECT_NAME    = STARLINK-36485
OBJECT_ID      = 2026-002H
CENTER_NAME    = EARTH
REF_FRAME      = TEME
TIME_SYSTEM    = UTC
MEAN_ELEMENT_THEORY = SGP/SGP4

EPOCH          = 2026-01-14T22:00:00.999936
MEAN_MOTION    = 15.89209474
ECCENTRICITY   = .00017012
INCLINATION    = 42.9978
RA_OF_ASC_NODE = 276.3344
ARG_OF_PERICENTER = 268.9486
MEAN_ANOMALY   = 347.6462

EPHEMERIS_TYPE = 0
CLASSIFICATION_TYPE = U
NORAD_CAT_ID   = 67312
ELEMENT_SET_NO = 999
REV_AT_EPOCH   = 277
BSTAR          = -.51502363E-2
MEAN_MOTION_DOT = -.1352509E-1
MEAN_MOTION_DDOT = 0

CCSDS_OMM_VERS = 2.0
CREATION_DATE  = 
ORIGINATOR     = 

OBJECT_NAME    = STARLINK-36445
OBJECT_ID      = 2026-002J
CENTER_NAME    = EARTH
REF_FRAME      = TEME
TIME_SYSTEM    = UTC
MEAN_ELEMENT_THEORY = SGP/SGP4

EPOCH          = 2026-01-14T22:00:00.999936
MEAN_MOTION    = 15.89245046
ECCENTRICITY   = .00016707
INCLINATION    = 42.9973
RA_OF_ASC_NODE = 276.3300
ARG_OF_PERICENTER = 270.9203
MEAN_ANOMALY   = 347.3480

EPHEMERIS_TYPE = 0
CLASSIFICATION_TYPE = U
NORAD_CAT_ID   = 67313
ELEMENT_SET_NO = 999
REV_AT_EPOCH   = 293
BSTAR          = -.51702415E-2
MEAN_MOTION_DOT = -.1359258E-1
MEAN_MOTION_DDOT = 0

CCSDS_OMM_VERS = 2.0
CREATION_DATE  = 
ORIGINATOR     = 

OBJECT_NAME    = STARLINK-36476
OBJECT_ID      = 2026-002K
CENTER_NAME    = EARTH
REF_FRAME      = TEME
TIME_SYSTEM    = UTC
MEAN_ELEMENT_THEORY = SGP/SGP4

EPOCH          = 2026-01-14T22:00:00.999936
MEAN_MOTION    = 15.89267906
ECCENTRICITY   = .00016987
INCLINATION    = 42.9977
RA_OF_ASC_NODE = 276.3233
ARG_OF_PERICENTER = 269.7168
MEAN_ANOMALY   = 351.3792

EPHEMERIS_TYPE = 0
CLASSIFICATION_TYPE = U
NORAD_CAT_ID   = 67314
ELEMENT_SET_NO = 999
REV_AT_EPOCH   = 277
BSTAR          = -.52895756E-2
MEAN_MOTION_DOT = -.1388101E-1
MEAN_MOTION_DDOT = 0

CCSDS_OMM_VERS = 2.0
CREATION_DATE  = 
ORIGINATOR     = 

OBJECT_NAME    = STARLINK-36463
OBJECT_ID      = 2026-002L
CENTER_NAME    = EARTH
REF_FRAME      = TEME
TIME_SYSTEM    = UTC
MEAN_ELEMENT_THEORY = SGP/SGP4

EPOCH          = 2026-01-14T22:00:00.999936
MEAN_MOTION    = 15.89310344
ECCENTRICITY   = .00016257
INCLINATION    = 42.9976
RA_OF_ASC_NODE = 276.3112
ARG_OF_PERICENTER = 263.9605
MEAN_ANOMALY   = 1.6835

EPHEMERIS_TYPE = 0
CLASSIFICATION_TYPE = U
NORAD_CAT_ID   = 67315
ELEMENT_SET_NO = 999
REV_AT_EPOCH   = 283
BSTAR          = -.5342018E-2
MEAN_MOTION_DOT = -.1402694E-1
MEAN_MOTION_DDOT = 0

