CSG-3                   
1 67304U 26001A   26014.95382274  .00000152  00000+0  25492-4 0  9995
2 67304  97.8589 200.8454 0001542  91.6087 268.5303 14.82318418  1765
STARLINK-36490          
1 67305U 26002A   26014.91667824 -.01221562  00000+0 -46397-2 0  9998
2 67305  42.9974 276.3716 0001693 264.5829 337.2574 15.88998128  2838
STARLINK-36488          
1 67306U 26002B   26014.91667824 -.01227363  00000+0 -46563-2 0  9999
2 67306  42.9975 276.3666 0001657 269.2262 334.5936 15.89033063  2771
STARLINK-36481          
1 67307U 26002C   26014.91667824 -.01254351  00000+0 -47559-2 0  9993
2 67307  42.9976 276.3544 0001692 270.6906 338.0633 15.89097279  2770
STARLINK-36449          
1 67308U 26002D   26014.91667824 -.01273350  00000+0 -48281-2 0  9997
2 67308  42.9975 276.3484 0001648 271.0354 340.0443 15.89134910  2839
STARLINK-36482          
1 67309U 26002E   26014.91667824 -.01397116  00000+0 -53226-2 0  9990
2 67309  42.9979 276.3183 0001670 271.0993 352.1744 15.89291457  2775
STARLINK-36491          
1 67310U 26002F   26014.91667824 -.01244541  00000+0 -47226-2 0  9998
2 67310  42.9978 276.3593 0001661 269.7493 337.0931 15.89062157  2773
STARLINK-36495          
1 67311U 26002G   26014.91667824 -.01312321  00000+0 -49852-2 0  9998
2 67311  42.9977 276.3417 0001715 270.5551 343.1819 15.89175340  2933
STARLINK-36485          
1 67312U 26002H   26014.91667824 -.01352509  00000+0 -51502-2 0  9996
2 67312  42.9978 276.3344 0001701 268.9486 347.6462 15.89209474  2778
STARLINK-36445          
1 67313U 26002J   26014.91667824 -.01359258  00000+0 -51702-2 0  9997
2 67313  42.9973 276.3300 0001670 270.9203 347.3480 15.89245046  2931
STARLINK-36476          
1 67314U 26002K   26014.91667824 -.01388101  00000+0 -52896-2 0  9992
2 67314  42.9977 276.3233 0001698 269.7168 351.3792 15.89267906  2779
STARLINK-36463          
1 67315U 26002L   26014.91667824 -.01402694  00000+0 -53420-2 0  9991
2 67315  42.9976 276.3112 0001625 263.9605   1.6835 15.89310344  2832
